0 DELTA 1 DEB
1 21515U 75052GL  13282.33739793  .00000595  00000-0  18426-2 0  9962
2 21515 099.7208 051.3487 0273277 295.7274 087.6680 12.97345814 61638
0 DELTA 1 DEB
1 21515U 75052GL  13283.34049417  .00000639  00000-0  19710-2 0  9978
2 21515 099.7211 052.2418 0273329 293.4494 092.5865 12.97346701 61763
0 DELTA 1 DEB
1 21515U 75052GL  13285.83637014  .00000659  00000-0  20286-2 0  9994
2 21515 099.7220 054.4645 0273455 287.7833 229.4807 12.97350219 62084
0 DELTA 1 DEB
1 21515U 75052GL  13287.04744122  .00000617  00000-0  19077-2 0    01
2 21515 099.7225 055.5428 0273539 285.0377 125.7479 12.97352329 62242
0 DELTA 1 DEB
1 21515U 75052GL  13288.35285870  .00000537  00000-0  16737-2 0    18
2 21515 099.7228 056.7055 0273638 282.0780 102.6634 12.97354627 62418
0 DELTA 1 DEB
1 21515U 75052GL  13290.28133566  .00000351  00000-0  11336-2 0    22
2 21515 099.7233 058.4231 0273735 277.7071 109.5775 12.97358140 62664
0 DELTA 1 DEB
1 21515U 75052GL  13290.58333500  .00000000  00000-0  10000-3 0    24
2 21515 099.7244 058.6912 0274352 276.9994 080.0406 12.97350119 62702
0 DELTA 1 DEB
1 21515U 75052GL  13292.85410760  .00000095  00000-0  39141-3 0    32
2 21515 099.7234 060.7150 0273818 271.8771 245.6904 12.97362308 62998
0 DELTA 1 DEB
1 21515U 75052GL  13293.85660758 -.00000006  00000-0  98162-4 0    40
2 21515 099.7232 061.6080 0273911 269.6121 247.8615 12.97363482 63129
0 DELTA 1 DEB
1 21515U 75052GL  13295.86163818 -.00000179  00000-0 -40356-3 0    52
2 21515 099.7230 063.3942 0273970 265.0729 252.3691 12.97365153 63382
